{
  "type": "FeatureCollection",
  "features": [
    {
      "type": "Feature",
      "properties": {
        "norad_id": 47048,
        "name": "COSMOS 2251 DEB",
        "group": "cosmos-2251-debris",
        "lat": -15.921918820712465,
        "lon": -53.96490599619099,
        "alt_km": 806.9258514297499,
        "timestamp": "2025-12-17T04:57:44.758888+00:00",
        "meta_object_name": "COSMOS 2251 DEB",
        "meta_object_id": "1993-036BXC",
        "meta_epoch": "2025-12-12T16:45:08.160768",
        "meta_mean_motion": 14.52302543,
        "meta_eccentricity": 0.01328752,
        "meta_inclination": 73.9781,
        "meta_ra_of_asc_node": 319.2649,
        "meta_arg_of_pericenter": 147.2155,
        "meta_mean_anomaly": 32.9715,
        "meta_ephemeris_type": 0,
        "meta_classification_type": "U",
        "meta_norad_cat_id": 47048,
        "meta_element_set_no": 999,
        "meta_rev_at_epoch": 59689,
        "meta_bstar": 0.0015366021,
        "meta_mean_motion_dot": 6.991e-05,
        "meta_mean_motion_ddot": 0,
        "tle_line1": "1 47048U 93036BXC 25346.69801112  .00006991  00000+0  15366-2 0  9999",
        "tle_line2": "2 47048  73.9781 319.2649 0132875 147.2155  32.9715 14.52302543596898"
      },
      "geometry": {
        "type": "Point",
        "coordinates": [
          -53.96490599619099,
          -15.921918820712465
        ]
      }
    },
    {
      "type": "Feature",
      "properties": {
        "norad_id": 47051,
        "name": "COSMOS 2251 DEB",
        "group": "cosmos-2251-debris",
        "lat": 21.546316312054305,
        "lon": -177.24812099583102,
        "alt_km": 1016.8631162357342,
        "timestamp": "2025-12-17T04:57:44.758897+00:00",
        "meta_object_name": "COSMOS 2251 DEB",
        "meta_object_id": "1993-036BXF",
        "meta_epoch": "2025-12-13T06:55:53.868288",
        "meta_mean_motion": 13.67117141,
        "meta_eccentricity": 0.03401033,
        "meta_inclination": 74.1001,
        "meta_ra_of_asc_node": 182.6908,
        "meta_arg_of_pericenter": 296.1774,
        "meta_mean_anomaly": 246.9893,
        "meta_ephemeris_type": 0,
        "meta_classification_type": "U",
        "meta_norad_cat_id": 47051,
        "meta_element_set_no": 999,
        "meta_rev_at_epoch": 59945,
        "meta_bstar": 0.0019326179,
        "meta_mean_motion_dot": 2.391e-05,
        "meta_mean_motion_ddot": 0,
        "tle_line1": "1 47051U 93036BXF 25347.28881792  .00002391  00000+0  19326-2 0  9991",
        "tle_line2": "2 47051  74.1001 182.6908 0340103 296.1774 246.9893 13.67117141599458"
      },
      "geometry": {
        "type": "Point",
        "coordinates": [
          -177.24812099583102,
          21.546316312054305
        ]
      }
    },
    {
      "type": "Feature",
      "properties": {
        "norad_id": 47052,
        "name": "COSMOS 2251 DEB",
        "group": "cosmos-2251-debris",
        "lat": 71.33027783264524,
        "lon": 94.3059502493173,
        "alt_km": 741.9670821950685,
        "timestamp": "2025-12-17T04:57:44.758906+00:00",
        "meta_object_name": "COSMOS 2251 DEB",
        "meta_object_id": "1993-036BXG",
        "meta_epoch": "2025-12-13T17:42:34.547904",
        "meta_mean_motion": 14.35482778,
        "meta_eccentricity": 0.00580984,
        "meta_inclination": 74.0478,
        "meta_ra_of_asc_node": 338.4955,
        "meta_arg_of_pericenter": 52.4094,
        "meta_mean_anomaly": 127.807,
        "meta_ephemeris_type": 0,
        "meta_classification_type": "U",
        "meta_norad_cat_id": 47052,
        "meta_element_set_no": 999,
        "meta_rev_at_epoch": 61803,
        "meta_bstar": 0.00037288685,
        "meta_mean_motion_dot": 1.067e-05,
        "meta_mean_motion_ddot": 0,
        "tle_line1": "1 47052U 93036BXG 25347.73789986  .00001067  00000+0  37289-3 0  9992",
        "tle_line2": "2 47052  74.0478 338.4955 0058098  52.4094 127.8070 14.35482778618033"
      },
      "geometry": {
        "type": "Point",
        "coordinates": [
          94.3059502493173,
          71.33027783264524
        ]
      }
    },
    {
      "type": "Feature",
      "properties": {
        "norad_id": 47053,
        "name": "COSMOS 2251 DEB",
        "group": "cosmos-2251-debris",
        "lat": 73.11762595024567,
        "lon": -3.518828626870166,
        "alt_km": 800.3754028995036,
        "timestamp": "2025-12-17T04:57:44.758915+00:00",
        "meta_object_name": "COSMOS 2251 DEB",
        "meta_object_id": "1993-036BXH",
        "meta_epoch": "2025-12-16T00:20:00.787200",
        "meta_mean_motion": 13.59681102,
        "meta_eccentricity": 0.03769313,
        "meta_inclination": 74.0586,
        "meta_ra_of_asc_node": 248.7599,
        "meta_arg_of_pericenter": 61.5734,
        "meta_mean_anomaly": 314.7883,
        "meta_ephemeris_type": 0,
        "meta_classification_type": "U",
        "meta_norad_cat_id": 47053,
        "meta_element_set_no": 999,
        "meta_rev_at_epoch": 28933,
        "meta_bstar": 0.0014494241,
        "meta_mean_motion_dot": 1.7e-05,
        "meta_mean_motion_ddot": 0,
        "tle_line1": "1 47053U 93036BXH 25350.01389800  .00001700  00000+0  14494-2 0  9995",
        "tle_line2": "2 47053  74.0586 248.7599 0376931  61.5734 314.7883 13.59681102289335"
      },
      "geometry": {
        "type": "Point",
        "coordinates": [
          -3.518828626870166,
          73.11762595024567
        ]
      }
    },
    {
      "type": "Feature",
      "properties": {
        "norad_id": 47059,
        "name": "COSMOS 2251 DEB",
        "group": "cosmos-2251-debris",
        "lat": -66.07198079155255,
        "lon": 86.48096832598479,
        "alt_km": 540.7558649055673,
        "timestamp": "2025-12-17T04:57:44.758935+00:00",
        "meta_object_name": "COSMOS 2251 DEB",
        "meta_object_id": "1993-036BXP",
        "meta_epoch": "2025-12-16T01:10:48.054720",
        "meta_mean_motion": 15.13144812,
        "meta_eccentricity": 0.00128667,
        "meta_inclination": 73.98,
        "meta_ra_of_asc_node": 228.534,
        "meta_arg_of_pericenter": 42.2566,
        "meta_mean_anomaly": 26.5019,
        "meta_ephemeris_type": 0,
        "meta_classification_type": "U",
        "meta_norad_cat_id": 47059,
        "meta_element_set_no": 999,
        "meta_rev_at_epoch": 8355,
        "meta_bstar": 0.0018804977,
        "meta_mean_motion_dot": 0.00033522,
        "meta_mean_motion_ddot": 0,
        "tle_line1": "1 47059U 93036BXP 25350.04916730  .00033522  00000+0  18805-2 0  9999",
        "tle_line2": "2 47059  73.9800 228.5340 0012866  42.2566  26.5019 15.13144812 83550"
      },
      "geometry": {
        "type": "Point",
        "coordinates": [
          86.48096832598479,
          -66.07198079155255
        ]
      }
    },
    {
      "type": "Feature",
      "properties": {
        "norad_id": 47062,
        "name": "COSMOS 2251 DEB",
        "group": "cosmos-2251-debris",
        "lat": -2.3603186579956916,
        "lon": -108.51632207595502,
        "alt_km": 763.0127232395271,
        "timestamp": "2025-12-17T04:57:44.759082+00:00",
        "meta_object_name": "COSMOS 2251 DEB",
        "meta_object_id": "1993-036BXS",
        "meta_epoch": "2025-12-13T23:56:30.676992",
        "meta_mean_motion": 13.71952164,
        "meta_eccentricity": 0.03233862,
        "meta_inclination": 74.0831,
        "meta_ra_of_asc_node": 76.1003,
        "meta_arg_of_pericenter": 201.6929,
        "meta_mean_anomaly": 337.1469,
        "meta_ephemeris_type": 0,
        "meta_classification_type": "U",
        "meta_norad_cat_id": 47062,
        "meta_element_set_no": 999,
        "meta_rev_at_epoch": 55619,
        "meta_bstar": 0.0017198262,
        "meta_mean_motion_dot": 2.244e-05,
        "meta_mean_motion_ddot": 0,
        "tle_line1": "1 47062U 93036BXS 25347.99757728  .00002244  00000+0  17198-2 0  9994",
        "tle_line2": "2 47062  74.0831  76.1003 0323386 201.6929 337.1469 13.71952164556193"
      },
      "geometry": {
        "type": "Point",
        "coordinates": [
          -108.51632207595502,
          -2.3603186579956916
        ]
      }
    },
    {
      "type": "Feature",
      "properties": {
        "norad_id": 47068,
        "name": "COSMOS 2251 DEB",
        "group": "cosmos-2251-debris",
        "lat": 12.636085675666568,
        "lon": 11.350164803147644,
        "alt_km": 721.5797861646806,
        "timestamp": "2025-12-17T04:57:44.759095+00:00",
        "meta_object_name": "COSMOS 2251 DEB",
        "meta_object_id": "1993-036BXY",
        "meta_epoch": "2025-12-16T19:56:05.244000",
        "meta_mean_motion": 14.53179195,
        "meta_eccentricity": 0.00183195,
        "meta_inclination": 74.0241,
        "meta_ra_of_asc_node": 195.7427,
        "meta_arg_of_pericenter": 282.4559,
        "meta_mean_anomaly": 77.4553,
        "meta_ephemeris_type": 0,
        "meta_classification_type": "U",
        "meta_norad_cat_id": 47068,
        "meta_element_set_no": 999,
        "meta_rev_at_epoch": 61816,
        "meta_bstar": 0.00062488988,
        "meta_mean_motion_dot": 2.566e-05,
        "meta_mean_motion_ddot": 0,
        "tle_line1": "1 47068U 93036BXY 25350.83061625  .00002566  00000+0  62489-3 0  9992",
        "tle_line2": "2 47068  74.0241 195.7427 0018319 282.4559  77.4553 14.53179195618165"
      },
      "geometry": {
        "type": "Point",
        "coordinates": [
          11.350164803147644,
          12.636085675666568
        ]
      }
    }
  ]
}